[{"OBJECT_NAME":"SENTINEL-1A","OBJECT_ID":"2014-016A","EPOCH":"2026-03-10T00:10:49.728000","MEAN_MOTION":14.5919833,"ECCENTRICITY":0.00013278,"INCLINATION":98.1822,"RA_OF_ASC_NODE":77.9733,"ARG_OF_PERICENTER":84.6895,"MEAN_ANOMALY":275.4456,"EPHEMERIS_TYPE":0,"CLASSIFICATION_TYPE":"U","NORAD_CAT_ID":39634,"ELEMENT_SET_NO":999,"REV_AT_EPOCH":63555,"BSTAR":5.6499537e-5,"MEAN_MOTION_DOT":2.21e-6,"MEAN_MOTION_DDOT":0},{"OBJECT_NAME":"FENGYUN 1C DEB","OBJECT_ID":"1999-025AKS","EPOCH":"2026-03-09T22:20:20.283648","MEAN_MOTION":14.5743834,"ECCENTRICITY":0.00112328,"INCLINATION":98.8366,"RA_OF_ASC_NODE":210.702,"ARG_OF_PERICENTER":347.4639,"MEAN_ANOMALY":12.6277,"EPHEMERIS_TYPE":0,"CLASSIFICATION_TYPE":"U","NORAD_CAT_ID":30552,"ELEMENT_SET_NO":999,"REV_AT_EPOCH":98921,"BSTAR":0.0033824008,"MEAN_MOTION_DOT":0.00015346,"MEAN_MOTION_DDOT":0}]
